COMMENT,ORIGINATOR,NORAD_CAT_ID,OBJECT_NAME,OBJECT_TYPE,CLASSIFICATION_TYPE,INTLDES,EPOCH,EPOCH_MICROSECONDS,MEAN_MOTION,ECCENTRICITY,INCLINATION,RA_OF_ASC_NODE,ARG_OF_PERICENTER,MEAN_ANOMALY,EPHEMERIS_TYPE,ELEMENT_SET_NO,REV_AT_EPOCH,BSTAR,MEAN_MOTION_DOT,MEAN_MOTION_DDOT,FILE,TLE_LINE0,TLE_LINE1,TLE_LINE2,OBJECT_ID,OBJECT_NUMBER,SEMIMAJOR_AXIS,PERIOD,APOGEE,PERIGEE,DECAYED
"GENERATED VIA SPACETRACK.ORG API","18 SPCS","48893","SPACEBEE-106","PAYLOAD","U","21059Q","2023-08-26 08:32:58","298784","15.35996118","0.0005343","97.603","17.3664","26.3687","333.7827","0","999","12014","0.0010627","0.00037314","0","3989608","0 SPACEBEE-106","1 48893U 21059Q   23238.35623031  .00037314  00000-0  10627-2 0  9996","2 48893  97.6030  17.3664 0005343  26.3687 333.7827 15.35996118120142","2021-059Q","48893","6836.100","93.750","461.618","454.313","0"
"GENERATED VIA SPACETRACK.ORG API","18 SPCS","48893","SPACEBEE-106","PAYLOAD","U","21059Q","2023-08-26 21:03:26","792352","15.36038764","0.000531","97.6031","17.9044","24.2722","335.8771","0","999","12022","0.0011398","0.00040097","0","3989878","0 SPACEBEE-106","1 48893U 21059Q   23238.87739343  .00040097  00000-0  11398-2 0  9995","2 48893  97.6031  17.9044 0005310  24.2722 335.8771 15.36038764120227","2021-059Q","48893","6835.974","93.748","461.469","454.209","0"
"GENERATED VIA SPACETRACK.ORG API","18 SPCS","48893","SPACEBEE-106","PAYLOAD","U","21059Q","2023-08-26 22:37:15","271104","15.36043153","0.0005313","97.6031","17.9716","24.0105","336.1385","0","999","12023","0.0011188","0.00039358","0","3989953","0 SPACEBEE-106","1 48893U 21059Q   23238.94253786  .00039358  00000-0  11188-2 0  9990","2 48893  97.6031  17.9716 0005313  24.0105 336.1385 15.36043153120233","2021-059Q","48893","6835.961","93.747","461.458","454.194","0"
"GENERATED VIA SPACETRACK.ORG API","18 SPCS","48893","SPACEBEE-106","PAYLOAD","U","21059Q","2023-08-27 08:00:05","758272","15.36074075","0.0005322","97.6031","18.3752","22.3637","337.7837","0","999","12029","0.0011366","0.00040029","0","3990390","0 SPACEBEE-106","1 48893U 21059Q   23239.33339998  .00040029  00000-0  11366-2 0  9999","2 48893  97.6031  18.3752 0005322  22.3637 337.7837 15.36074075120291","2021-059Q","48893","6835.869","93.745","461.372","454.096","0"
"GENERATED VIA SPACETRACK.ORG API","18 SPCS","48893","SPACEBEE-106","PAYLOAD","U","21059Q","2023-08-27 20:30:31","997664","15.36114568","0.0005336","97.6034","18.9133","20.3817","339.7639","0","999","12037","0.0010807","0.00038096","0","3990698","0 SPACEBEE-106","1 48893U 21059Q   23239.85453701  .00038096  00000-0  10807-2 0  9995","2 48893  97.6034  18.9133 0005336  20.3817 339.7639 15.36114568120379","2021-059Q","48893","6835.749","93.743","461.261","453.966","0"
"GENERATED VIA SPACETRACK.ORG API","18 SPCS","48893","SPACEBEE-106","PAYLOAD","U","21059Q","2023-08-28 02:45:44","691840","15.36133325","0.0005297","97.6033","19.1822","19.9518","340.1931","0","999","12041","0.0010902","0.00038456","0","3990833","0 SPACEBEE-106","1 48893U 21059Q   23240.11510060  .00038456  00000-0  10902-2 0  9994","2 48893  97.6033  19.1822 0005297  19.9518 340.1931 15.36133325120412","2021-059Q","48893","6835.693","93.742","461.179","453.937","0"
"GENERATED VIA SPACETRACK.ORG API","18 SPCS","48893","SPACEBEE-106","PAYLOAD","U","21059Q","2023-08-28 19:57:32","955552","15.36191538","0.0005241","97.6032","19.9221","16.644","343.4974","0","999","12052","0.0010816","0.00038222","0","3991628","0 SPACEBEE-106","1 48893U 21059Q   23240.83163143  .00038222  00000-0  10816-2 0  9994","2 48893  97.6032  19.9221 0005241  16.6440 343.4974 15.36191538120524","2021-059Q","48893","6835.521","93.738","460.968","453.803","0"
"GENERATED VIA SPACETRACK.ORG API","18 SPCS","48893","SPACEBEE-106","PAYLOAD","U","21059Q","2023-08-29 08:27:55","804608","15.36227993","0.0005222","97.6034","20.4602","14.1967","345.9422","0","999","12060","0.00099516","0.00035187","0","3992098","0 SPACEBEE-106","1 48893U 21059Q   23241.35272922  .00035187  00000-0  99516-3 0  9990","2 48893  97.6034  20.4602 0005222  14.1967 345.9422 15.36227993120601","2021-059Q","48893","6835.412","93.736","460.847","453.708","0"
"GENERATED VIA SPACETRACK.ORG API","18 SPCS","48893","SPACEBEE-106","PAYLOAD","U","21059Q","2023-08-29 14:43:06","815712","15.36246769","0.0005213","97.6036","20.7293","13.1817","346.9561","0","999","12064","0.0010081","0.0003567","0","3992439","0 SPACEBEE-106","1 48893U 21059Q   23241.61327333  .00035670  00000-0  10081-2 0  9992","2 48893  97.6036  20.7293 0005213  13.1817 346.9561 15.36246769120646","2021-059Q","48893","6835.357","93.735","460.785","453.658","0"
"GENERATED VIA SPACETRACK.ORG API","18 SPCS","48893","SPACEBEE-106","PAYLOAD","U","21059Q","2023-08-30 15:43:48","90144","15.36321666","0.0005218","97.6042","21.8057","9.5384","350.5957","0","999","12080","0.00097251","0.00034485","0","3993174","0 SPACEBEE-106","1 48893U 21059Q   23242.65541771  .00034485  00000-0  97251-3 0  9999","2 48893  97.6042  21.8057 0005218   9.5384 350.5957 15.36321666120804","2021-059Q","48893","6835.135","93.730","460.566","453.433","0"
"GENERATED VIA SPACETRACK.ORG API","18 SPCS","48893","SPACEBEE-106","PAYLOAD","U","21059Q","2023-08-30 15:43:48","90144","15.36321666","0.0005218","97.6042","21.8057","9.5384","350.5957","0","999","12080","0.00097251","0.00034485","0","3993321","0 SPACEBEE-106","1 48893U 21059Q   23242.65541771  .00034485  00000-0  97251-3 0  9999","2 48893  97.6042  21.8057 0005218   9.5384 350.5957 15.36321666120804","2021-059Q","48893","6835.135","93.730","460.566","453.433","0"
"GENERATED VIA SPACETRACK.ORG API","18 SPCS","48893","SPACEBEE-106","PAYLOAD","U","21059Q","2023-08-31 08:55:28","914816","15.36374208","0.000521","97.6045","22.5459","6.7625","353.3688","0","999","12091","0.0010038","0.00035662","0","3994074","0 SPACEBEE-106","1 48893U 21059Q   23243.37186244  .00035662  00000-0  10038-2 0  9994","2 48893  97.6045  22.5459 0005210   6.7625 353.3688 15.36374208120914","2021-059Q","48893","6834.979","93.727","460.405","453.283","0"
"GENERATED VIA SPACETRACK.ORG API","18 SPCS","48893","SPACEBEE-106","PAYLOAD","U","21059Q","2023-08-31 08:55:28","914816","15.36374208","0.000521","97.6045","22.5459","6.7625","353.3688","0","999","12091","0.0010038","0.00035662","0","3994893","0 SPACEBEE-106","1 48893U 21059Q   23243.37186244  .00035662  00000-0  10038-2 0  9994","2 48893  97.6045  22.5459 0005210   6.7625 353.3688 15.36374208120914","2021-059Q","48893","6834.979","93.727","460.405","453.283","0"
"GENERATED VIA SPACETRACK.ORG API","18 SPCS","48893","SPACEBEE-106","PAYLOAD","U","21059Q","2023-09-01 20:52:31","55232","15.36491536","0.0005219","97.6053","24.094","0.4432","359.6815","0","999","12114","0.0011892","0.00042462","0","3995212","0 SPACEBEE-106","1 48893U 21059Q   23244.86980388  .00042462  00000-0  11892-2 0  9995","2 48893  97.6053  24.0940 0005219   0.4432 359.6815 15.36491536121142","2021-059Q","48893","6834.631","93.720","460.063","452.929","0"
"GENERATED VIA SPACETRACK.ORG API","18 SPCS","48893","SPACEBEE-106","PAYLOAD","U","21059Q","2023-09-02 07:48:58","394304","15.36527085","0.0005214","97.6053","24.5651","358.8149","1.3081","0","999","12121","0.0011186","0.00039969","0","3995624","0 SPACEBEE-106","1 48893U 21059Q   23245.32567586  .00039969  00000-0  11186-2 0  9992","2 48893  97.6053  24.5651 0005214 358.8149   1.3081 15.36527085121219","2021-059Q","48893","6834.525","93.718","459.954","452.827","0"
"GENERATED VIA SPACETRACK.ORG API","18 SPCS","48893","SPACEBEE-106","PAYLOAD","U","21059Q","2023-09-02 20:19:11","108640","15.36598362","0.0005217","97.6056","25.1036","356.8677","3.2533","0","999","12129","0.0019731","0.00071014","0","3996022","0 SPACEBEE-106","1 48893U 21059Q   23245.84665635  .00071014  00000-0  19731-2 0  9994","2 48893  97.6056  25.1036 0005217 356.8677   3.2533 15.36598362121290","2021-059Q","48893","6834.314","93.713","459.744","452.614","0"
"GENERATED VIA SPACETRACK.ORG API","18 SPCS","48893","SPACEBEE-106","PAYLOAD","U","21059Q","2023-09-03 08:49:22","367136","15.36631263","0.0005178","97.6053","25.6426","354.5085","5.61","0","999","12137","0.0013527","0.00048567","0","3996370","0 SPACEBEE-106","1 48893U 21059Q   23246.36761999  .00048567  00000-0  13527-2 0  9996","2 48893  97.6053  25.6426 0005178 354.5085   5.6100 15.36631263121372","2021-059Q","48893","6834.216","93.711","459.620","452.543","0"
"GENERATED VIA SPACETRACK.ORG API","18 SPCS","48893","SPACEBEE-106","PAYLOAD","U","21059Q","2023-09-03 08:49:22","367136","15.36631263","0.0005178","97.6053","25.6426","354.5085","5.61","0","999","12137","0.0013527","0.00048567","0","3996586","0 SPACEBEE-106","1 48893U 21059Q   23246.36761999  .00048567  00000-0  13527-2 0  9996","2 48893  97.6053  25.6426 0005178 354.5085   5.6100 15.36631263121372","2021-059Q","48893","6834.216","93.711","459.620","452.543","0"
"GENERATED VIA SPACETRACK.ORG API","18 SPCS","48893","SPACEBEE-106","PAYLOAD","U","21059Q","2023-09-03 22:53:18","457440","15.36675824","0.0005264","97.6056","26.2483","352.0946","8.0214","0","999","12146","0.0010829","0.0003887","0","3997023","0 SPACEBEE-106","1 48893U 21059Q   23246.95368585  .00038870  00000-0  10829-2 0  9993","2 48893  97.6056  26.2483 0005264 352.0946   8.0214 15.36675824121464","2021-059Q","48893","6834.084","93.709","459.547","452.352","0"
"GENERATED VIA SPACETRACK.ORG API","18 SPCS","48893","SPACEBEE-106","PAYLOAD","U","21059Q","2023-09-04 08:15:55","12608","15.36707169","0.0005268","97.6055","26.6523","350.1828","9.9312","0","999","12152","0.0011034","0.00039652","0","3997503","0 SPACEBEE-106","1 48893U 21059Q   23247.34438672  .00039652  00000-0  11034-2 0  9990","2 48893  97.6055  26.6523 0005268 350.1828   9.9312 15.36707169121528","2021-059Q","48893","6833.991","93.707","459.457","452.256","0"
